[{"OBJECT_NAME":"SWARM B","OBJECT_ID":"2013-067A","EPOCH":"2026-03-09T22:20:48.706656","MEAN_MOTION":15.27862638,"ECCENTRICITY":0.00036996,"INCLINATION":87.749,"RA_OF_ASC_NODE":12.4162,"ARG_OF_PERICENTER":86.3179,"MEAN_ANOMALY":273.8493,"EPHEMERIS_TYPE":0,"CLASSIFICATION_TYPE":"U","NORAD_CAT_ID":39451,"ELEMENT_SET_NO":999,"REV_AT_EPOCH":66808,"BSTAR":0.00020534236,"MEAN_MOTION_DOT":5.616e-5,"MEAN_MOTION_DDOT":0},{"OBJECT_NAME":"STARLINK-30489","OBJECT_ID":"2023-151L","EPOCH":"2026-03-09T01:55:19.776000","MEAN_MOTION":15.2671903,"ECCENTRICITY":0.00023706,"INCLINATION":43.0031,"RA_OF_ASC_NODE":339.3962,"ARG_OF_PERICENTER":252.2381,"MEAN_ANOMALY":107.8212,"EPHEMERIS_TYPE":0,"CLASSIFICATION_TYPE":"U","NORAD_CAT_ID":57974,"ELEMENT_SET_NO":999,"REV_AT_EPOCH":13567,"BSTAR":-4.4439226e-5,"MEAN_MOTION_DOT":-1.451e-5,"MEAN_MOTION_DDOT":0}]
